GLOBALSTAR M023         
1 25621U 99004A   25089.29077870 -.00000019  00000+0  47007-3 0  9993
2 25621  52.0106 293.6861 0009130 316.6947 214.7348 12.62504584205762
GLOBALSTAR M040         
1 25622U 99004B   25089.51748228 -.00000043  00000+0  33794-3 0  9996
2 25622  51.9915 297.0326 0000720 152.3442 222.0230 12.62006293205322
GLOBALSTAR M036         
1 25623U 99004C   25089.72758502 -.00000066  00000+0  24740-3 0  9992
2 25623  51.9953  87.1211 0011022 262.7824 268.9875 11.86592356169657
GLOBALSTAR M038         
1 25624U 99004D   25089.29521359 -.00000056  00000+0  32157-3 0  9993
2 25624  51.9976 298.7740 0001055 232.0940 298.7413 12.32523594192648
GLOBALSTAR M022         
1 25649U 99012A   25089.42952910 -.00000047  00000+0  47437-3 0  9992
2 25649  52.0020 145.0013 0002268  25.9743 347.5492 12.02498006166907
GLOBALSTAR M041         
1 25650U 99012B   25089.53573663 -.00000058  00000+0  34883-3 0  9993
2 25650  52.0050  23.7659 0001619 144.8507 215.2437 11.96669771168866
GLOBALSTAR M046         
1 25651U 99012C   25089.77218347  .00000078  00000+0  18423-2 0  9997
2 25651  52.0037  97.0633 0002338  96.5862  74.3539 12.09408916174528
GLOBALSTAR M037         
1 25652U 99012D   25089.33964228 -.00000047  00000+0  31878-3 0  9993
2 25652  52.0005  64.1800 0002191  19.6495 127.5041 12.62441187201313
